1  8820U 76039A   03041.74356980 -.00000011 +00000-0 +10000-3 0  9990
2  8820 109.8298 138.3079 0044347 328.5227 031.2794 06.38664638368989
